GEISAT PRECURSOR        
1 56934U 23084C   24184.20804181  .00010087  00000+0  47377-3 0  9993
2 56934  97.5439 302.2835 0007198 346.8085  13.2960 15.19797532 58360
EIVE                    
1 56937U 23084F   24184.23038198  .00023744  00000+0  89482-3 0  9993
2 56937  97.5383 303.7384 0004995 335.0131  25.0865 15.27065985 58476
LAYAN-23                
1 56939U 23084H   24184.14467439  .00024326  00000+0  88171-3 0  9990
2 56939  97.5380 304.1689 0005195 321.2675  38.8191 15.28347158 58493
AFRL-XVI                
1 56942U 23084L   24183.86604631  .00026518  00000+0  96638-3 0  9991
2 56942  97.5421 303.9609 0005909 328.6436  31.4450 15.28146949 58448
BLACKJACK ACES-3        
1 56950U 23084U   24183.92355832  .00012300  00000+0  53125-3 0  9991
2 56950  97.5441 303.1015 0008643 322.2503  37.8126 15.22611903 58390
QPS-SAR-6 (AMATERU-III) 
1 56951U 23084V   24184.14973290  .00043822  00000+0  12239-2 0  9994
2 56951  97.5376 305.8951 0005912 286.5278  73.5316 15.36566285 58602
BLACKJACK ACES-4        
1 56952U 23084W   24183.87215521  .00017285  00000+0  72041-3 0  9992
2 56952  97.5429 303.1236 0008755 319.9656  40.0934 15.23740631 58394
BLACKJACK ACES-2        
1 56955U 23084Z   24183.89690377  .00016144  00000+0  66638-3 0  9991
2 56955  97.5429 303.0984 0008797 324.1287  35.9358 15.24081346 58395
BLACKJACK ACES-1        
1 56956U 23084AA  24184.06514789  .00015991  00000+0  69838-3 0  9998
2 56956  97.5409 303.3124 0009250 323.9794  36.0818 15.22165090 58411
ION SCV-011             
1 56957U 23084AB  24183.62187940  .00003554  00000+0  32053-3 0  9996
2 56957  98.0661 303.0943 0102707 259.1900  99.7745 14.92272556 56891
GHOST-3                 
1 56958U 23084AC  24183.90293986  .00010054  00000+0  46248-3 0  9990
2 56958  97.5441 302.5218 0010411 327.5446  32.5148 15.20494265 58356
TOMORROW-R2             
1 56962U 23084AG  24184.04752353  .00013802  00000+0  59295-3 0  9999
2 56962  97.5427 303.1967 0010120 322.8685  37.1850 15.22751349 58412
AFR-1                   
1 56964U 23084AJ  24184.19933508  .00005505  00000+0  27710-3 0  9998
2 56964  97.5466 302.2023 0012310 328.1291  31.9196 15.17559670 58350
DROID.001               
1 56965U 23084AK  24183.91343571  .00014839  00000+0  62682-3 0  9990
2 56965  97.5408 303.1388 0009921 317.3646  42.6820 15.23310434 58408
MUSAT1                  
1 56967U 23084AM  24183.86879706  .00044869  00000+0  12655-2 0  9990
2 56967  97.5347 305.8562 0007440 292.1770  67.8684 15.36244217 58582
AII-DELTA               
1 56987U 23084BH  24184.15306792  .00030656  00000+0  96610-3 0  9998
2 56987  97.5334 305.4739 0009197 291.0395  68.9862 15.32806909 58593
SPEI SATELLES           
1 56991U 23084BT  24183.91558636  .00026450  00000+0  93769-3 0  9991
2 56991  97.5366 304.3768 0007460 296.6763  63.3712 15.29042308 58497
URESAT-1                
1 56992U 23084BU  24184.11291903  .00031732  00000+0  11207-2 0  9991
2 56992  97.5321 303.6429 0010788 332.2494  27.8168 15.29099423 58467
MRC-100                 
1 56993U 23084BV  24183.80120374  .00038769  00000+0  12765-2 0  9997
2 56993  97.5322 303.7759 0010158 330.4074  29.6591 15.31338609 58455
METEOR-M2 3             
1 57166U 23091A   24184.15307584  .00000054  00000+0  42616-4 0  9993
2 57166  98.7119 238.6922 0005156  88.5684 271.6085 14.23901974 52758
STRATOSAT-TK 1 (RS52S)  
1 57167U 23091B   24184.10436903  .00017925  00000+0  10172-2 0  9992
2 57167  97.6108 237.1370 0016120  72.9436 287.3559 15.12895729 55810
UMKA 1 (RS40S)          
1 57172U 23091G   24184.19863122  .00006207  00000+0  40841-3 0  9992
2 57172  97.6116 236.0932 0018339  73.7138 286.6106 15.07778028 55758
2023-091H               
1 57173U 23091H   24184.18330533  .00008325  00000+0  53467-3 0  9998
2 57173  97.6108 236.1130 0016415  82.7679 277.5415 15.08593732 55754
2023-091J               
1 57174U 23091J   24184.20616414  .00004703  00000+0  32832-3 0  9996
2 57174  97.6132 235.4858 0017428  83.2654 277.0556 15.05719792 55715
CUBEBEL 2 (EU11S)       
1 57175U 23091K   24184.20812949  .00008717  00000+0  56070-3 0  9997
2 57175  97.6116 236.0685 0016770  85.0574 275.2568 15.08516709 55756
SITRO-AIS 5 (KATYS)     
1 57176U 23091L   24184.21428783  .00008956  00000+0  57140-3 0  9992
2 57176  97.6125 236.2690 0018978  73.7306 286.6009 15.08774803 55762
ZORKIY-2M 1             
1 57177U 23091M   24184.19198054  .00005973  00000+0  39099-3 0  9994
2 57177  97.6129 236.1847 0018943  69.9450 290.3815 15.07976204 55753
CUBESX-HSE 3 (RS42S)    
1 57178U 23091N   24184.20679168  .00008855  00000+0  55825-3 0  9994
2 57178  97.6152 236.5653 0018547  68.3414 291.9788 15.09222682 55776
MONITOR-3 (RS58S)       
1 57180U 23091Q   24184.19823815  .00008216  00000+0  52536-3 0  9992
2 57180  97.6145 236.3930 0018874  68.8049 291.5194 15.08721416 55763
MONITOR-4 (RS57S)       
1 57182U 23091S   24184.19912545  .00008264  00000+0  52829-3 0  9991
2 57182  97.6139 236.3657 0018964  69.3872 290.9388 15.08730829 55760
MONITOR-2 (RS39S)       
1 57184U 23091U   24184.16150961  .00006522  00000+0  42851-3 0  9995
2 57184  97.6143 236.4402 0015276  63.8412 296.4385 15.07853487 55761
SVYATOBOR 1 (RS60S)     
1 57187U 23091X   24184.10226804  .00008947  00000+0  56135-3 0  9995
2 57187  97.6142 236.8320 0014559  61.6825 298.5871 15.09450582 55789
HORS 1                  
1 57188U 23091Y   24184.16463077  .00008202  00000+0  51526-3 0  9990
2 57188  97.6123 236.8176 0013934  62.4421 297.8222 15.09441183 55795
VIZARD-METEO (RS38S)    
1 57189U 23091Z   24184.17641968  .00010062  00000+0  60651-3 0  9995
2 57189  97.6134 237.3123 0013323  59.8925 300.3623 15.10895534 55821
NANOZOND 1 (RS49S)      
1 57190U 23091AA  24184.15268131  .00013919  00000+0  77795-3 0  9993
2 57190  97.6115 237.8339 0011776  65.6256 294.6203 15.13551987 55865
SITRO-AIS 6 (CHIRKIN)   
1 57192U 23091AC  24184.19885175  .00008459  00000+0  53910-3 0  9998
2 57192  97.6122 236.2797 0018901  73.7352 286.5954 15.08833089 55762
SITRO-AIS 8 (ANOKHIN)   
1 57193U 23091AD  24184.16351448  .00010230  00000+0  64524-3 0  9990
2 57193  97.6116 236.3178 0018340  74.5819 285.7434 15.09167054 55761
SITRO-AIS 7 (FARTUSHNIY)
1 57194U 23091AE  24184.13799640  .00008312  00000+0  53053-3 0  9991
2 57194  97.6120 236.1999 0018782  74.4817 285.8483 15.08787555 55750
AVION KALUGA 650        
1 57195U 23091AF  24184.15513398  .00006100  00000+0  39764-3 0  9994
2 57195  97.6156 236.6649 0014647  64.9868 295.2879 15.08181331 55779
HORS 2                  
1 57196U 23091AG  24184.18829793  .00008249  00000+0  50539-3 0  9996
2 57196  97.6135 237.1535 0013967  63.1619 297.1036 15.10354534 55817
A-SEANSAT-PG1           
1 57197U 23091AH  24184.14428344  .00011116  00000+0  67205-3 0  9995
2 57197  97.6125 237.1223 0013780  66.5203 293.7473 15.10752114 55813
YARILO 3                
1 57198U 23091AJ  24184.15797523  .00023574  00000+0  11714-2 0  9999
2 57198  97.6165 238.8720 0011510  64.5582 295.6841 15.17600668 55919
SITRO-AIS 10 (BURDAEV)  
1 57199U 23091AK  24184.18206729  .00009773  00000+0  58755-3 0  9998
2 57199  97.6130 237.2826 0013317  64.9170 295.3440 15.10998547 55827
SITRO-AIS 9 (SHCHUKIN)  
1 57201U 23091AM  24184.18053848  .00009621  00000+0  57878-3 0  9991
2 57201  97.6125 237.2606 0013255  64.8241 295.4362 15.10981270 55829
UTMN 2 (RS27S)          
1 57203U 23091AP  24184.17223500  .00009611  00000+0  58759-3 0  9994
2 57203  97.6134 237.1614 0013732  59.9438 300.3152 15.10386731 55815
SITRO-AIS 12 (SMIRENNIY)
1 57204U 23091AQ  24184.14113505  .00010072  00000+0  60239-3 0  9994
2 57204  97.6141 237.3582 0013243  60.1362 300.1181 15.11178423 55826
ARCCUBE 1 (RS25S)       
1 57205U 23091AR  24184.18520648  .00016196  00000+0  87510-3 0  9993
2 57205  97.6080 237.9938 0011760  66.6652 293.5815 15.14725082 55882
SITRO-AIS 11 (SHEFFER)  
1 57208U 23091AU  24184.19220676  .00009218  00000+0  55048-3 0  9993
2 57208  97.6134 237.4331 0013033  60.1513 300.1010 15.11259842 55837
H2SAT (HEINRICH HERTZ)  
1 57213U 23093A   24181.67869449  .00000004  00000+0  00000+0 0  9996
2 57213   0.0269  92.6871 0000861 141.3089 289.0598  1.00271882  3723
KUZGTU 1 (RS47S)        
1 57217U 23091AV  24184.21683729  .00008943  00000+0  56613-3 0  9991
2 57217  97.6127 236.4330 0018369  69.3678 290.9518 15.09074128 55778
2023-103B               
1 57422U 23103B   24184.21739739  .00061029  00000+0  34015-3 0  9992
2 57422  96.5823 253.1154 0010121  91.8369 268.4059 15.79193128 53915
FENGYUN 3F              
1 57490U 23111A   24184.17107400  .00000157  00000+0  94701-4 0  9999
2 57490  98.7692 253.1643 0001834  74.9108 285.2271 14.19832161 47393
HJ-2F                   
1 57519U 23116A   24184.17299901  .00013059  00000+0  58243-3 0  9999
2 57519  97.3882 190.6573 0001675 164.2735 195.8553 15.21525767 49970
XRISM                   
1 57800U 23137A   24183.72226804  .00005817  00000+0  43384-3 0  9990
2 57800  31.0033 280.0810 0009555 353.4232   6.6277 15.01391042 44795
